{
    "links": {
        "self": "http://www.neowsapp.com/rest/v1/neo/3843576?api_key=iIulBulltgU6a56xZRHN4H3l9WmuAYTsLGpBGhQ2"
    },
    "id": "3843576",
    "neo_reference_id": "3843576",
    "name": "(2019 QR)",
    "designation": "2019 QR",
    "nasa_jpl_url": "http://ssd.jpl.nasa.gov/sbdb.cgi?sstr=3843576",
    "absolute_magnitude_h": 26.4,
    "estimated_diameter": {
        "kilometers": {
            "estimated_diameter_min": 0.0139493823,
            "estimated_diameter_max": 0.0311917671
        },
        "meters": {
            "estimated_diameter_min": 13.9493822934,
            "estimated_diameter_max": 31.1917670523
        },
        "miles": {
            "estimated_diameter_min": 0.0086677416,
            "estimated_diameter_max": 0.0193816595
        },
        "feet": {
            "estimated_diameter_min": 45.7656914036,
            "estimated_diameter_max": 102.3351970157
        }
    },
    "is_potentially_hazardous_asteroid": false,
    "close_approach_data": [
        {
            "close_approach_date": "2019-08-27",
            "close_approach_date_full": "2019-Aug-27 14:46",
            "epoch_date_close_approach": 1566917160000,
            "relative_velocity": {
                "kilometers_per_second": "7.2033026269",
                "kilometers_per_hour": "25931.8894570097",
                "miles_per_hour": "16113.0676462181"
            },
            "miss_distance": {
                "astronomical": "0.0303098723",
                "lunar": "11.7905403247",
                "kilometers": "4534292.336052001",
                "miles": "2817478.6094035738"
            },
            "orbiting_body": "Earth"
        }
    ],
    "orbital_data": {
        "orbit_id": "2",
        "orbit_determination_date": "2019-08-25 05:25:34",
        "first_observation_date": "2019-08-21",
        "last_observation_date": "2019-08-25",
        "data_arc_in_days": 4,
        "observations_used": 19,
        "orbit_uncertainty": "8",
        "minimum_orbit_intersection": ".00302651",
        "jupiter_tisserand_invariant": "4.017",
        "epoch_osculation": "2458718.5",
        "eccentricity": ".4312176790140493",
        "semi_major_axis": "1.751944239830728",
        "inclination": "1.067298577659801",
        "ascending_node_longitude": "181.4545565993253",
        "orbital_period": "846.9910985250117",
        "perihelion_distance": ".9964749109688885",
        "perihelion_argument": "180.4654760754423",
        "aphelion_distance": "2.507413568692567",
        "perihelion_time": "2458746.353460605588",
        "mean_anomaly": "348.1613327041175",
        "mean_motion": ".4250339827973637",
        "equinox": "J2000",
        "orbit_class": {
            "orbit_class_type": "APO",
            "orbit_class_description": "Near-Earth asteroid orbits which cross the Earth’s orbit similar to that of 1862 Apollo",
            "orbit_class_range": "a (semi-major axis) > 1.0 AU; q (perihelion) < 1.017 AU"
        }
    },
    "is_sentry_object": false
}